{"type": "FeatureCollection", "features": [{"type": "Feature", "geometry": {"type": "Polygon", "coordinates": [[[67.547104849864, 38.233094961290846], [67.57237457224333, 38.20188125020674], [67.58817314586759, 38.19206671438445], [67.63073533525987, 38.19088958110114], [67.68162701865421, 38.177726302755424], [67.7002348233835, 38.16546372271899], [67.70683434544716, 38.146490283642166], [67.68066389471704, 38.11552631257203], [67.67109017045567, 38.09583486765174], [67.638708225032, 38.093221887345734], [67.63222467805522, 38.07695955524747], [67.62165660648202, 38.06903572778619], [67.65182683928471, 38.05293384502436], [67.65412778126795, 38.03643078603529], [67.67398862219821, 38.01944157012237], [67.70390918503784, 38.03504398536616], [67.71228783678525, 38.02423507721976], [67.69580699057423, 38.015307991580734], [67.71003592846385, 38.00434301383091], [67.73868572118766, 38.02465869853486], [67.76314383543632, 38.013386123747296], [67.78378502493229, 38.01632020949535], [67.78307162182618, 38.035115284644846], [67.76167238429615, 38.04982589883162], [67.75070744126847, 38.06892871033921], [67.78260781444335, 38.09618272048136], [67.79096418733671, 38.08537387227407], [67.79891918481928, 38.10040101239757], [67.81238567665028, 38.107053961535], [67.8043682245993, 38.1260676102817], [67.81515483014323, 38.1386690262913], [67.8247374242558, 38.12195633219214], [67.83608137773233, 38.11222654231411], [67.83950149507537, 38.123869229477876], [67.85732896607674, 38.1292068030573], [67.84925803382708, 38.14705659073462], [67.85003831873092, 38.16581605077553], [67.86734856372271, 38.15826227377968], [67.86537764231079, 38.14657499574365], [67.8822954949034, 38.15165391497475], [67.87277085806387, 38.16954829924795], [67.85325779291252, 38.19477790549086], [67.83603680590595, 38.20468158665221], [67.83643367712023, 38.21406347235149], [67.85428786557895, 38.21939659087288], [67.84743421676912, 38.23133804634254], [67.82854547809782, 38.236590909521354], [67.82892451919878, 38.245977304323944], [67.8456194066522, 38.25840037318735], [67.82246327435217, 38.267296251117116], [67.78531452644276, 38.25782066198881], [67.78285304382786, 38.26962836273414], [67.75395367525111, 38.28220303761875], [67.73618409818975, 38.27919754680924], [67.7203900199838, 38.28904331401199], [67.71366119490438, 38.30448958149311], [67.69957047943663, 38.32015444227546], [67.68344184805, 38.321790882483576], [67.67365863847193, 38.33497199672471], [67.63551988264594, 38.33839656576212], [67.6186199164489, 38.320083076951974], [67.5960791381146, 38.30778934920265], [67.56649749163168, 38.27953645648789], [67.56310858657159, 38.26788933036447], [67.58634942693975, 38.260206270423325], [67.56685419024325, 38.250177737939765], [67.547104849864, 38.233094961290846]]]}, "id": "00010000000000000436", "properties": {"district": "Oltinsoy", "region": "Surkhandarya", "n_years": 19, "status": "ok", "y_ref": 5343.024783650462, "y_min": 3830.93085756169, "y_max": 6150.0, "cv": 0.12679945039840548, "coverage": 0.869532923687649, "exit_level": 0.4, "mu": -324.5591196908707, "beta": 562.2839770750803, "trend_slope": 4.273002433139808, "trend_p": 0.8834263957184059, "detrended": false, "trigger_prob": 0.15000000000000002, "pure_rate": 0.03457721047247919, "gross_rate": 0.20888636983615183, "burn_rate": 0.02630784987643581, "n_triggers": 4, "RL5": 518.8331014382131, "RL10": 940.78637099019, "RL20": 1345.534077630066, "RL50": 1869.4384671962907, "RL100": 2262.0310826799196, "VaR90": 940.78637099019, "CVaR90": 1517.9653687685422, "VaR95": 1345.534077630066, "CVaR95": 1915.0486862727776, "VaR99": 2262.0310826799196, "CVaR99": 2825.7286323066464, "r_heat35": 0.15954132362555987, "p_heat35": 0.5141352901456737, "r_heat30": -0.009777754748170851, "p_heat30": 0.9683103930805985, "r_t_max_abs": 0.026223107813312316, "p_t_max_abs": 0.9151367971353228, "r_rh_min_mean": 0.11824537052920651, "p_rh_min_mean": 0.6297166494205209, "r_precip_sum": 0.0493567788614048, "p_precip_sum": 0.8409667710610632, "n": 19, "sd_pct": 12.7, "r_viloyat": 0.57, "HE_tuman": 47.0, "HE_viloyat": 16.6, "sof_tarif": 1.88, "chastota_pct": 21, "zone": "Barqaror"}}, {"type": "Feature", "geometry": {"type": "Polygon", "coordinates": [[[67.09898304100102, 37.430501374711866], [67.10111894013437, 37.40461180860902], [67.17703070706055, 37.367619115886136], [67.25123009224006, 37.370553145531076], [67.29212007482604, 37.3766041575033], [67.32527796617444, 37.368742757544325], [67.37311516007071, 37.36520674963834], [67.45472569004984, 37.37251516878935], [67.4569150791436, 37.39360223862341], [67.46764364255782, 37.40975762084884], [67.46079451348416, 37.421681268296666], [67.44078207989908, 37.4315893578801], [67.41837950408758, 37.414551090317055], [67.39651660634914, 37.41275860003566], [67.40699545742072, 37.46416307861977], [67.38778116648399, 37.45525376971469], [67.35431118867562, 37.45492386263853], [67.34928127689845, 37.478539225770916], [67.33576132752118, 37.46595562714981], [67.31124075320264, 37.472434708222586], [67.31204783675187, 37.4970757499133], [67.30535022595257, 37.514858628685914], [67.23277390871438, 37.52131089974646], [67.21257868439646, 37.5276695868098], [67.17456033017992, 37.522702187070685], [67.16048298018272, 37.53830014318991], [67.16150859027398, 37.52418256351105], [67.13374170013401, 37.473152661081684], [67.10564493616066, 37.45853122611725], [67.09898304100102, 37.430501374711866]]]}, "id": "00010000000000000437", "properties": {"district": "Angor", "region": "Surkhandarya", "n_years": 19, "status": "ok", "y_ref": 6694.106448014121, "y_min": 4548.94717399335, "y_max": 7680.0, "cv": 0.10523108028384333, "coverage": 0.8940653504724465, "exit_level": 0.4, "mu": -332.74985848729034, "beta": 573.4233132334476, "trend_slope": 84.32775457464231, "trend_p": 0.00707980981391379, "detrended": true, "trigger_prob": 0.15000000000000013, "pure_rate": 0.026984664157183147, "gross_rate": 0.16185543555604645, "burn_rate": 0.022097649281864747, "n_triggers": 2, "RL5": 527.3506983716848, "RL10": 957.6632303325105, "RL20": 1370.4293421687123, "RL50": 1904.7127347799471, "RL100": 2305.0829524992178, "VaR90": 957.6632303325105, "CVaR90": 1546.2766476247307, "VaR95": 1370.4293421687123, "CVaR95": 1951.226532089612, "VaR99": 2305.0829524992178, "CVaR99": 2879.9478423898518, "r_heat35": 0.2737129907730595, "p_heat35": 0.2568311661841999, "r_heat30": -0.003708092953009048, "p_heat30": 0.9879796478684296, "r_t_max_abs": 0.06819693970065989, "p_t_max_abs": 0.7814688800157292, "r_rh_min_mean": -0.31118841126367264, "p_rh_min_mean": 0.19468734786756678, "r_precip_sum": -0.09415255431551249, "p_precip_sum": 0.7014282015919256, "n": 19, "sd_pct": 10.5, "r_viloyat": 0.84, "HE_tuman": 46.7, "HE_viloyat": 23.8, "sof_tarif": 1.15, "chastota_pct": 11, "zone": "Barqaror"}}, {"type": "Feature", "geometry": {"type": "Polygon", "coordinates": [[[67.19979890124362, 37.75081195204941], [67.22821674267843, 37.74338305579128], [67.25756201660191, 37.747369486616364], [67.28871331686652, 37.76186157313132], [67.31214149340025, 37.76363630610968], [67.33076269091552, 37.75260900048771], [67.36132091363335, 37.749487627947495], [67.39654334147005, 37.75447285117735], [67.4297190107905, 37.784148156324406], [67.44739492568854, 37.78839328421264], [67.46087481414925, 37.7974318534698], [67.48418250760864, 37.79564817663997], [67.50688822000282, 37.81735509073155], [67.47890294612431, 37.852145059000264], [67.45430654639397, 37.85983698946451], [67.44945498502905, 37.913685033521226], [67.43319713609336, 37.90940878342764], [67.41755461028696, 37.88045141123708], [67.39818427891413, 37.87038275576653], [67.38065551552585, 37.87082865725606], [67.31760387267363, 37.8231029027579], [67.2907957232709, 37.808499303466924], [67.27380207559762, 37.780728037991935], [67.25064154536574, 37.78716697128276], [67.22831930186564, 37.77479303048854], [67.22636622401764, 37.75957408122526], [67.19979890124362, 37.75081195204941]]]}, "id": "00010000000000000438", "properties": {"district": "Bandixon", "region": "Surkhandarya", "n_years": 10, "status": "ok", "y_ref": 4336.064462944652, "y_min": 0.0, "y_max": 5660.0, "cv": 0.3738336814345403, "coverage": 0.6918545002335141, "exit_level": 0.4, "mu": -622.095783194031, "beta": 1077.7527725276734, "trend_slope": 62.13223154331159, "trend_p": 0.4099103693528707, "detrended": false, "trigger_prob": 0.15000000000000002, "pure_rate": 0.09073563877882379, "gross_rate": 0.30283372394933367, "burn_rate": 0.1, "n_triggers": 1, "RL5": 994.4686961611588, "RL10": 1803.2438430226475, "RL20": 2579.0403814096844, "RL50": 3583.2294236292223, "RL100": 4335.727800005459, "VaR90": 1803.2438430226475, "CVaR90": 2909.5465129585928, "VaR95": 2579.0403814096844, "CVaR95": 3670.6524021764385, "VaR99": 4335.727800005459, "CVaR99": 5416.190025049691, "r_heat35": 0.3487082940045959, "p_heat35": 0.3233837834463355, "r_heat30": 0.44455405982104745, "p_heat30": 0.19800749340219703, "r_t_max_abs": 0.27826771870773426, "p_t_max_abs": 0.4362741367122691, "r_rh_min_mean": -0.46660373230113644, "p_rh_min_mean": 0.1740044956279685, "r_precip_sum": -0.22893634709846122, "p_precip_sum": 0.5246343885300211, "n": 10, "sd_pct": 38.1, "r_viloyat": 0.21, "HE_tuman": 86.7, "HE_viloyat": 0.0, "sof_tarif": 10.25, "chastota_pct": 20, "zone": "Yuqori xavf"}}, {"type": "Feature", "geometry": {"type": "Polygon", "coordinates": [[[66.69352588888793, 38.02260754381444], [66.71566092504848, 38.013903401759244], [66.74381121813215, 38.025086835287276], [66.75513284963789, 38.00958696515263], [66.77980055176457, 37.99969221191548], [66.80404473481796, 37.97452502769383], [66.82601026193736, 37.97407020604829], [66.8414387561489, 37.949085843356066], [66.86025172435815, 37.94047532319612], [66.87969781322624, 37.95532859354065], [66.93386701782892, 37.95416478917395], [66.98870944713015, 37.9259520182533], [67.06837575847376, 37.89715515166351], [67.11941461185938, 37.891282536062015], [67.14887150997184, 37.89763674880897], [67.17066758153565, 37.89242853739189], [67.20591674133925, 37.896285634684375], [67.20054797973897, 37.86588350540523], [67.21549939630947, 37.83029096073163], [67.20334827838688, 37.816490011961996], [67.1692362047603, 37.800856460173826], [67.11475936212183, 37.788041004397265], [67.14775672783996, 37.768487817097125], [67.1494378110881, 37.72851644051995], [67.22636622401764, 37.75957408122526], [67.22831930186564, 37.77479303048854], [67.25064154536574, 37.78716697128276], [67.27380207559762, 37.780728037991935], [67.2907957232709, 37.808499303466924], [67.31760387267363, 37.8231029027579], [67.38065551552585, 37.87082865725606], [67.39818427891413, 37.87038275576653], [67.41755461028696, 37.88045141123708], [67.43319713609336, 37.90940878342764], [67.44945498502905, 37.913685033521226], [67.47418960995802, 37.90951131403714], [67.49954860006513, 37.92292882176085], [67.51787549217266, 37.94357888049673], [67.5396893378183, 37.939467580989046], [67.5488038288419, 37.9486221033298], [67.54032705369308, 37.957067651357356], [67.56421442261205, 37.96933911318382], [67.54425994477398, 37.98396940720737], [67.55300867682566, 38.02247824118664], [67.5169524024015, 38.03870932716876], [67.5260935662912, 38.04785940669752], [67.54061244346838, 38.04394878661774], [67.56147207091246, 38.05277336834087], [67.55381583378126, 38.083505482936154], [67.53122598937621, 38.1075980154131], [67.52889832563069, 38.12410114395501], [67.50366880406997, 38.11655636750349], [67.5018138239266, 38.14596410528069], [67.51911952719361, 38.17720457290923], [67.49831340541428, 38.210629993508526], [67.5123506050317, 38.23256874447416], [67.46471406511007, 38.216217208104766], [67.46544532205486, 38.23615836381529], [67.45839549944397, 38.24456376556431], [67.47385521731462, 38.26528961709752], [67.49273503683274, 38.258922012780346], [67.50479241569252, 38.26681463104997], [67.47021655464899, 38.28652391562489], [67.46952094389181, 38.30767782464214], [67.44939260027313, 38.321117584662], [67.46142773393406, 38.32785528194615], [67.50238003957445, 38.320890144970214], [67.51448652816472, 38.32995997189587], [67.49585638836382, 38.34338186295385], [67.49048765393563, 38.35761086637496], [67.51498599600706, 38.38278251144423], [67.47083195541892, 38.383955264141655], [67.47006049917509, 38.40276370986862], [67.45298664041275, 38.419654785310044], [67.43401312884549, 38.4248496350692], [67.43841429765668, 38.464656032162175], [67.48282692028074, 38.46312214181875], [67.4720448423896, 38.478773556238096], [67.44752424198394, 38.4911743705576], [67.42580393816024, 38.51886086331128], [67.39892895337924, 38.529952928893174], [67.33379931532602, 38.5519607855686], [67.30517637124701, 38.55854245476684], [67.27382444325123, 38.5541859130885], [67.22591580105129, 38.50724489611335], [67.19817573317324, 38.49738138997759], [67.17942081108636, 38.47302583351976], [67.17581333739271, 38.420470810968375], [67.16174933288409, 38.39448760794001], [67.12701295665717, 38.370497668107426], [67.09192874720777, 38.36454922667035], [67.06801013723114, 38.35382060696937], [67.04355641370825, 38.35588074509552], [67.03352345222004, 38.33655503777696], [67.00880221874914, 38.32959878421952], [66.98273428688968, 38.30911811783939], [66.98428161063379, 38.29780541584218], [66.97180948252016, 38.290559396313114], [66.94925090942564, 38.29256594618254], [66.92077509795601, 38.2856588019466], [66.92126553424714, 38.26986025410552], [66.89794898014526, 38.27788661314625], [66.87326780330655, 38.27164385543612], [66.87339713002852, 38.243065482071046], [66.86022046110519, 38.209497405179306], [66.88159738049492, 38.20001286765054], [66.8489523257472, 38.14279811577761], [66.82398133813766, 38.123762261283886], [66.78324749483235, 38.11257432138936], [66.71315929047245, 38.05606858567309], [66.69352588888793, 38.02260754381444]]]}, "id": "00010000000000000439", "properties": {"district": "Boysun", "region": "Surkhandarya", "n_years": 19, "status": "check failed: RL(100) <= reference yield", "y_ref": 1348.0280013451993, "y_min": 1320.0, "y_max": 4635.3305785124, "cv": 0.3292603578329298, "coverage": 0.6633218162060999, "exit_level": 0.4, "mu": -207.17753378177227, "beta": 363.8103556649252, "trend_slope": -113.6310581333297, "trend_p": 0.008363563095818552, "detrended": true, "trigger_prob": 0.15000000000000002, "pure_rate": 0.09820151339054224, "gross_rate": 0.3112950485092812, "burn_rate": 0.05246545527003559, "n_triggers": 4, "RL5": 338.5161662772505, "RL10": 611.5294039444957, "RL20": 873.4102561665285, "RL50": 1212.388157144584, "RL100": 1466.4043925235455, "VaR90": 611.5294039444957, "CVaR90": 984.9771723770451, "VaR95": 873.4102561665285, "CVaR95": 1241.8989927733862, "VaR99": 1466.4043925235455, "CVaR99": 1831.1293613621344, "r_heat35": 0.03895292249045663, "p_heat35": 0.8742013780287602, "r_heat30": 0.08565611076544372, "p_heat30": 0.7273441266577502, "r_t_max_abs": 0.057358202606899326, "p_t_max_abs": 0.8155777809131881, "r_rh_min_mean": -0.09138359562425567, "p_rh_min_mean": 0.7098410593186074, "r_precip_sum": -0.3815917999167505, "p_precip_sum": 0.10694279491884658, "n": 19, "sd_pct": 32.9, "r_viloyat": 0.12, "HE_tuman": 69.0, "HE_viloyat": 0.4, "sof_tarif": 8.29, "chastota_pct": 42, "zone": "Yuqori xavf"}}, {"type": "Feature", "geometry": {"type": "Polygon", "coordinates": [[[67.8822954949034, 38.15165391497475], [67.88741900512528, 38.133884434853194], [67.90344946910173, 38.131057356301696], [67.90291440900066, 38.118161636102265], [67.93151955057156, 38.10086920694379], [67.93658503813745, 38.08193139194288], [67.95809125251586, 38.10475310423316], [67.96510095695159, 38.13153891149222], [67.98376681448245, 38.155618058714154], [68.00548708304065, 38.21598539582415], [68.0114221003651, 38.25102053787438], [68.05172796863037, 38.2978857064646], [68.02478161666345, 38.347154307720395], [68.00286071286743, 38.36409438864694], [67.9910217442942, 38.352710351144985], [67.9610655329159, 38.39339960451197], [67.95469788789303, 38.377324525916244], [67.94001858663015, 38.37867567302496], [67.92018894206328, 38.39193255801314], [67.90116195611793, 38.39793452381056], [67.90532672869507, 38.41587795033862], [67.88525185459027, 38.423712596230274], [67.87248104528742, 38.41686340620639], [67.86231870156703, 38.418071811954306], [67.85737799557975, 38.40827519629822], [67.82266839436386, 38.41925352559964], [67.80974596555465, 38.435899355584894], [67.7831429348365, 38.45113157365531], [67.72927702501735, 38.46624794586473], [67.68727225168365, 38.49455431486631], [67.6332190596259, 38.50601869031247], [67.63956436272694, 38.49409505027012], [67.61218993601408, 38.491245664240054], [67.60893925815184, 38.46602945321646], [67.59729204835476, 38.45821711877984], [67.59878581384167, 38.41690354894533], [67.59088881065931, 38.4030267924471], [67.59145952020155, 38.379527323233184], [67.57326641366642, 38.365944964507676], [67.5646603406281, 38.33329983293369], [67.56502595167268, 38.303936634587544], [67.5960791381146, 38.30778934920265], [67.6186199164489, 38.320083076951974], [67.63551988264594, 38.33839656576212], [67.67365863847193, 38.33497199672471], [67.68344184805, 38.321790882483576], [67.69957047943663, 38.32015444227546], [67.71366119490438, 38.30448958149311], [67.7203900199838, 38.28904331401199], [67.73618409818975, 38.27919754680924], [67.75395367525111, 38.28220303761875], [67.78285304382786, 38.26962836273414], [67.78531452644276, 38.25782066198881], [67.82246327435217, 38.267296251117116], [67.8456194066522, 38.25840037318735], [67.82892451919878, 38.245977304323944], [67.82854547809782, 38.236590909521354], [67.84743421676912, 38.23133804634254], [67.85428786557895, 38.21939659087288], [67.83643367712023, 38.21406347235149], [67.83603680590595, 38.20468158665221], [67.85325779291252, 38.19477790549086], [67.8822954949034, 38.15165391497475]]]}, "id": "0001000000000000043a", "properties": {"district": "Denov", "region": "Surkhandarya", "n_years": 19, "status": "ok", "y_ref": 7157.132898885844, "y_min": 5150.0, "y_max": 7940.000000000001, "cv": 0.09168594311625408, "coverage": 0.9079209167406014, "exit_level": 0.4, "mu": -307.8421355694734, "beta": 532.1327650230564, "trend_slope": 82.17800273203622, "trend_p": 0.0050939246694383135, "detrended": true, "trigger_prob": 0.15000000000000013, "pure_rate": 0.022831317986200143, "gross_rate": 0.1367065031873187, "burn_rate": 0.023100794898053365, "n_triggers": 3, "RL5": 490.32507695351444, "RL10": 889.6520526308436, "RL20": 1272.696074961679, "RL50": 1768.5072714282758, "RL100": 2140.0479919938225, "VaR90": 889.6520526308436, "CVaR90": 1435.8811264143565, "VaR95": 1272.696074961679, "CVaR95": 1811.6717452173577, "VaR99": 2140.0479919938225, "CVaR99": 2673.5185299236964, "r_heat35": 0.3668382169388407, "p_heat35": 0.12237238734733022, "r_heat30": 0.14126310464214872, "p_heat30": 0.5640379420418619, "r_t_max_abs": 0.14332437576626622, "p_t_max_abs": 0.5583061742284815, "r_rh_min_mean": -0.19118726825224983, "p_rh_min_mean": 0.4330028528583048, "r_precip_sum": 0.06944281522106995, "p_precip_sum": 0.7775713236650509, "n": 19, "sd_pct": 9.2, "r_viloyat": 0.5, "HE_tuman": 38.7, "HE_viloyat": -10.2, "sof_tarif": 1.05, "chastota_pct": 16, "zone": "Barqaror"}}, {"type": "Feature", "geometry": {"type": "Polygon", "coordinates": [[[67.45472569004984, 37.37251516878935], [67.5534814206386, 37.371097207723075], [67.58656343093952, 37.361996179309656], [67.63205077731202, 37.33492942341992], [67.69710456874516, 37.327268656400065], [67.74518706514479, 37.331785764740914], [67.77927238872086, 37.312031915190005], [67.83056548508222, 37.32085204253756], [67.82978065932825, 37.389477584942185], [67.7852342082536, 37.39051658809378], [67.66937340398323, 37.43957111477527], [67.64035801635282, 37.44155099074187], [67.63785645354538, 37.45218148388174], [67.64184736861846, 37.481424270546185], [67.68124355173103, 37.56134918311819], [67.70719107711372, 37.59232211828683], [67.71105264314117, 37.61686946547761], [67.69548591608303, 37.62905176144548], [67.67046140167716, 37.62269747759491], [67.59465222365306, 37.622434450156234], [67.57519716226109, 37.60887877943542], [67.5745104997531, 37.5901059467314], [67.53388360904715, 37.59472112247593], [67.53421810826543, 37.60409860105575], [67.52847924837022, 37.606604659495616], [67.52877800460675, 37.61481385501117], [67.54054996329249, 37.61802436514463], [67.54975804461785, 37.630697113955506], [67.52812246894092, 37.63714056539241], [67.53630049966128, 37.66158085755019], [67.56582865924592, 37.67135522931838], [67.56775494104737, 37.684219759992345], [67.55541214154258, 37.70569030000525], [67.58696924736773, 37.769415325477915], [67.60525602632792, 37.79004754630529], [67.58937713633694, 37.79517553278389], [67.57292753932403, 37.7850623033313], [67.53597936899443, 37.733216352111896], [67.51979733988675, 37.7301217388458], [67.50414143928835, 37.74110005134202], [67.48481119287652, 37.77213979302253], [67.4660874571338, 37.779680173463525], [67.4521572665743, 37.75773693793633], [67.42669576822944, 37.739601778974055], [67.40716487234322, 37.68139263522168], [67.34886435403781, 37.61828523675563], [67.31484362768259, 37.58155780843078], [67.30535022595257, 37.514858628685914], [67.31204783675187, 37.4970757499133], [67.31124075320264, 37.472434708222586], [67.33576132752118, 37.46595562714981], [67.34928127689845, 37.478539225770916], [67.35431118867562, 37.45492386263853], [67.38778116648399, 37.45525376971469], [67.40699545742072, 37.46416307861977], [67.39651660634914, 37.41275860003566], [67.41837950408758, 37.414551090317055], [67.44078207989908, 37.4315893578801], [67.46079451348416, 37.421681268296666], [67.46764364255782, 37.40975762084884], [67.4569150791436, 37.39360223862341], [67.45472569004984, 37.37251516878935]]]}, "id": "0001000000000000043b", "properties": {"district": "Jarqo'rg'on", "region": "Surkhandarya", "n_years": 19, "status": "ok", "y_ref": 5802.379688929039, "y_min": 3938.4598386918597, "y_max": 8000.0, "cv": 0.15363891506405153, "coverage": 0.8490606763175019, "exit_level": 0.4, "mu": -412.26139907307305, "beta": 708.9138460058646, "trend_slope": 66.88533294292657, "trend_p": 0.07594062614619884, "detrended": true, "trigger_prob": 0.15000000000000013, "pure_rate": 0.041363991474891726, "gross_rate": 0.24687919033821057, "burn_rate": 0.01986960724051142, "n_triggers": 3, "RL5": 651.0668257186007, "RL10": 1183.055157857931, "RL20": 1693.351138313754, "RL50": 2353.87694180318, "RL100": 2848.848081482016, "VaR90": 1183.055157857931, "CVaR90": 1910.74828060581, "VaR95": 1693.351138313754, "CVaR95": 2411.3811872395836, "VaR99": 2848.848081482016, "CVaR99": 3559.544125087408, "r_heat35": -0.006196214435071898, "p_heat35": 0.9799152577742505, "r_heat30": -0.07786433654796865, "p_heat30": 0.7513631891804893, "r_t_max_abs": 0.2849660652857627, "p_t_max_abs": 0.23699625135850202, "r_rh_min_mean": -0.006391815655700162, "p_rh_min_mean": 0.9792813530020271, "r_precip_sum": 0.11602269258646346, "p_precip_sum": 0.6362128192770115, "n": 19, "sd_pct": 15.4, "r_viloyat": 0.75, "HE_tuman": 49.2, "HE_viloyat": 17.9, "sof_tarif": 1.7, "chastota_pct": 16, "zone": "Barqaror"}}, {"type": "Feature", "geometry": {"type": "Polygon", "coordinates": [[[67.30535022595257, 37.514858628685914], [67.31484362768259, 37.58155780843078], [67.34886435403781, 37.61828523675563], [67.40716487234322, 37.68139263522168], [67.42669576822944, 37.739601778974055], [67.4521572665743, 37.75773693793633], [67.4660874571338, 37.779680173463525], [67.48481119287652, 37.77213979302253], [67.48418250760864, 37.79564817663997], [67.46087481414925, 37.7974318534698], [67.44739492568854, 37.78839328421264], [67.4297190107905, 37.784148156324406], [67.39654334147005, 37.75447285117735], [67.36132091363335, 37.749487627947495], [67.33076269091552, 37.75260900048771], [67.31214149340025, 37.76363630610968], [67.28871331686652, 37.76186157313132], [67.25756201660191, 37.747369486616364], [67.26535659402461, 37.71781457032356], [67.2556535245517, 37.68869665457448], [67.21541465880786, 37.61686054583936], [67.17322704580076, 37.573232676787164], [67.17824353248773, 37.54728075091647], [67.16048298018272, 37.53830014318991], [67.17456033017992, 37.522702187070685], [67.21257868439646, 37.5276695868098], [67.23277390871438, 37.52131089974646], [67.30535022595257, 37.514858628685914]]]}, "id": "0001000000000000043c", "properties": {"district": "Qiziriq", "region": "Surkhandarya", "n_years": 18, "status": "ok", "y_ref": 3177.8699297482963, "y_min": 3149.11448450348, "y_max": 7290.87217514124, "cv": 0.14418756394874613, "coverage": 0.859703624710365, "exit_level": 0.4, "mu": -211.60000618815053, "beta": 361.83699745349134, "trend_slope": -157.120062008224, "trend_p": 0.00014333044342386192, "detrended": true, "trigger_prob": 0.15000000000000002, "pure_rate": 0.03796555593220201, "gross_rate": 0.2305596334066464, "burn_rate": 0.012958317890781697, "n_triggers": 2, "RL5": 331.13377498134224, "RL10": 602.6661506940229, "RL20": 863.1265245758909, "RL50": 1200.265762047057, "RL100": 1452.9041778666867, "VaR90": 602.6661506940229, "CVaR90": 974.0882862414633, "VaR95": 863.1265245758909, "CVaR95": 1229.6165267792846, "VaR99": 1452.9041778666867, "CVaR99": 1815.6508275041708, "r_heat35": -0.4191568720450256, "p_heat35": 0.08337325538602124, "r_heat30": -0.4861607617614556, "p_heat30": 0.04078937893592254, "r_t_max_abs": -0.21954729809596224, "p_t_max_abs": 0.381388681540272, "r_rh_min_mean": 0.5614273555516298, "p_rh_min_mean": 0.01533340539656405, "r_precip_sum": 0.21887175302442557, "p_precip_sum": 0.38289238727197755, "n": 18, "sd_pct": 14.4, "r_viloyat": 0.42, "HE_tuman": 33.6, "HE_viloyat": 15.3, "sof_tarif": 1.17, "chastota_pct": 17, "zone": "Yuqori xavf"}}, {"type": "Feature", "geometry": {"type": "Polygon", "coordinates": [[[67.547104849864, 38.233094961290846], [67.56685419024325, 38.250177737939765], [67.58634942693975, 38.260206270423325], [67.56310858657159, 38.26788933036447], [67.56649749163168, 38.27953645648789], [67.5960791381146, 38.30778934920265], [67.56502595167268, 38.303936634587544], [67.5646603406281, 38.33329983293369], [67.57326641366642, 38.365944964507676], [67.59145952020155, 38.379527323233184], [67.59088881065931, 38.4030267924471], [67.59878581384167, 38.41690354894533], [67.59729204835476, 38.45821711877984], [67.58034304909403, 38.46049574474398], [67.56358124292345, 38.43744665837649], [67.54238271632794, 38.44706935722668], [67.52080510149845, 38.44674382217656], [67.52031909128941, 38.46392925910767], [67.48942635075824, 38.457530413246765], [67.48282692028074, 38.46312214181875], [67.43841429765668, 38.464656032162175], [67.43401312884549, 38.4248496350692], [67.45298664041275, 38.419654785310044], [67.47006049917509, 38.40276370986862], [67.47083195541892, 38.383955264141655], [67.51498599600706, 38.38278251144423], [67.49048765393563, 38.35761086637496], [67.49585638836382, 38.34338186295385], [67.51448652816472, 38.32995997189587], [67.50238003957445, 38.320890144970214], [67.46142773393406, 38.32785528194615], [67.44939260027313, 38.321117584662], [67.46952094389181, 38.30767782464214], [67.47021655464899, 38.28652391562489], [67.50479241569252, 38.26681463104997], [67.49273503683274, 38.258922012780346], [67.47385521731462, 38.26528961709752], [67.45839549944397, 38.24456376556431], [67.46544532205486, 38.23615836381529], [67.46471406511007, 38.216217208104766], [67.5123506050317, 38.23256874447416], [67.49831340541428, 38.210629993508526], [67.51911952719361, 38.17720457290923], [67.5018138239266, 38.14596410528069], [67.50366880406997, 38.11655636750349], [67.52889832563069, 38.12410114395501], [67.53122598937621, 38.1075980154131], [67.55381583378126, 38.083505482936154], [67.56147207091246, 38.05277336834087], [67.54061244346838, 38.04394878661774], [67.5260935662912, 38.04785940669752], [67.5169524024015, 38.03870932716876], [67.55300867682566, 38.02247824118664], [67.54425994477398, 37.98396940720737], [67.56421442261205, 37.96933911318382], [67.54032705369308, 37.957067651357356], [67.5488038288419, 37.9486221033298], [67.5396893378183, 37.939467580989046], [67.51787549217266, 37.94357888049673], [67.49954860006513, 37.92292882176085], [67.47418960995802, 37.90951131403714], [67.44945498502905, 37.913685033521226], [67.45430654639397, 37.85983698946451], [67.47890294612431, 37.852145059000264], [67.50688822000282, 37.81735509073155], [67.48418250760864, 37.79564817663997], [67.48481119287652, 37.77213979302253], [67.50414143928835, 37.74110005134202], [67.51979733988675, 37.7301217388458], [67.53597936899443, 37.733216352111896], [67.57292753932403, 37.7850623033313], [67.58937713633694, 37.79517553278389], [67.60525602632792, 37.79004754630529], [67.58696924736773, 37.769415325477915], [67.55541214154258, 37.70569030000525], [67.56775494104737, 37.684219759992345], [67.56582865924592, 37.67135522931838], [67.53630049966128, 37.66158085755019], [67.52812246894092, 37.63714056539241], [67.54975804461785, 37.630697113955506], [67.54054996329249, 37.61802436514463], [67.52877800460675, 37.61481385501117], [67.52847924837022, 37.606604659495616], [67.53421810826543, 37.60409860105575], [67.53388360904715, 37.59472112247593], [67.5745104997531, 37.5901059467314], [67.57519716226109, 37.60887877943542], [67.59465222365306, 37.622434450156234], [67.67046140167716, 37.62269747759491], [67.69548591608303, 37.62905176144548], [67.71105264314117, 37.61686946547761], [67.70719107711372, 37.59232211828683], [67.68124355173103, 37.56134918311819], [67.64184736861846, 37.481424270546185], [67.63785645354538, 37.45218148388174], [67.64035801635282, 37.44155099074187], [67.66937340398323, 37.43957111477527], [67.7852342082536, 37.39051658809378], [67.82978065932825, 37.389477584942185], [67.82837155765458, 37.46328907780512], [67.85402925580166, 37.5301443898832], [67.88844017910367, 37.556519965341685], [67.93875214385943, 37.64027976848005], [67.99168618004501, 37.69317364075263], [68.01779869533563, 37.70817851628394], [68.04696120917107, 37.743784419616055], [67.98307117836873, 37.77677282213298], [67.93479253572205, 37.77471277415431], [67.91256834168966, 37.8023769703755], [67.87801924115445, 37.81514782630545], [67.81192195319903, 37.77012879540912], [67.79479009540736, 37.780023479117894], [67.77732829551734, 37.781704611677036], [67.75193811517667, 37.804731363252706], [67.74574891642109, 37.83308235682867], [67.72704301291306, 37.84066283514209], [67.7257141222677, 37.844225666067736], [67.7468547916072, 37.861237099779764], [67.74033552272208, 37.88137442518066], [67.7535791059936, 37.88334981259036], [67.75871147564888, 37.90197989857182], [67.79553033641143, 37.90796853411311], [67.8063258075632, 37.92173824613953], [67.7832276190398, 37.92945688028948], [67.75223691528852, 37.92330333260675], [67.73930996777648, 37.92953719975552], [67.73991192979979, 37.94479175734573], [67.75505055056028, 37.957268313125354], [67.74990036341394, 37.97502891641534], [67.7264945384157, 37.97569332181424], [67.71204252616398, 37.98080346412174], [67.71003592846385, 38.00434301383091], [67.69580699057423, 38.015307991580734], [67.71228783678525, 38.02423507721976], [67.70390918503784, 38.03504398536616], [67.67398862219821, 38.01944157012237], [67.65412778126795, 38.03643078603529], [67.65182683928471, 38.05293384502436], [67.62165660648202, 38.06903572778619], [67.63222467805522, 38.07695955524747], [67.638708225032, 38.093221887345734], [67.67109017045567, 38.09583486765174], [67.69005476412651, 38.130526702996995], [67.70683434544716, 38.146490283642166], [67.7002348233835, 38.16546372271899], [67.68162701865421, 38.177726302755424], [67.63073533525987, 38.19088958110114], [67.58817314586759, 38.19206671438445], [67.57237457224333, 38.20188125020674], [67.547104849864, 38.233094961290846]]]}, "id": "0001000000000000043d", "properties": {"district": "Qumqo'rg'on", "region": "Surkhandarya", "n_years": 19, "status": "ok", "y_ref": 4893.1475904224235, "y_min": 4010.0, "y_max": 5390.0, "cv": 0.08351374828578569, "coverage": 0.9169946716470672, "exit_level": 0.4, "mu": -189.1036820928777, "beta": 327.61356559014587, "trend_slope": -13.601742802926678, "trend_p": 0.43495334571126304, "detrended": false, "trigger_prob": 0.15000000000000024, "pure_rate": 0.02021256421156051, "gross_rate": 0.12096126724835206, "burn_rate": 0.02266765632735248, "n_triggers": 4, "RL5": 302.2970051406434, "RL10": 548.1471818955195, "RL20": 783.9725739447367, "RL50": 1089.224354347509, "RL100": 1317.9676083381498, "VaR90": 548.1471818955195, "CVaR90": 884.4392996783172, "VaR95": 783.9725739447367, "CVaR95": 1115.7990516681127, "VaR99": 1317.9676083381498, "CVaR99": 1646.4047889746896, "r_heat35": -0.2720674446194785, "p_heat35": 0.25981671127150013, "r_heat30": -0.21705215564499913, "p_heat30": 0.372078585120091, "r_t_max_abs": 0.07666847081194036, "p_t_max_abs": 0.7550696502133605, "r_rh_min_mean": 0.32814425977814377, "p_rh_min_mean": 0.17019454695723488, "r_precip_sum": 0.22853804511908252, "p_precip_sum": 0.34666281981568126, "n": 19, "sd_pct": 8.3, "r_viloyat": 0.45, "HE_tuman": 28.8, "HE_viloyat": 11.0, "sof_tarif": 0.74, "chastota_pct": 16, "zone": "Barqaror"}}, {"type": "Feature", "geometry": {"type": "Polygon", "coordinates": [[[67.30517637124701, 38.55854245476684], [67.37205396194057, 38.54104491503317], [67.42580393816024, 38.51886086331128], [67.44752424198394, 38.4911743705576], [67.4720448423896, 38.478773556238096], [67.48942635075824, 38.457530413246765], [67.52031909128941, 38.46392925910767], [67.52080510149845, 38.44674382217656], [67.54238271632794, 38.44706935722668], [67.56358124292345, 38.43744665837649], [67.58034304909403, 38.46049574474398], [67.59729204835476, 38.45821711877984], [67.60893925815184, 38.46602945321646], [67.61218993601408, 38.491245664240054], [67.63956436272694, 38.49409505027012], [67.6332190596259, 38.50601869031247], [67.68727225168365, 38.49455431486631], [67.72927702501735, 38.46624794586473], [67.7831429348365, 38.45113157365531], [67.80974596555465, 38.435899355584894], [67.82266839436386, 38.41925352559964], [67.85737799557975, 38.40827519629822], [67.86231870156703, 38.418071811954306], [67.87248104528742, 38.41686340620639], [67.88525185459027, 38.423712596230274], [67.90532672869507, 38.41587795033862], [67.90116195611793, 38.39793452381056], [67.92018894206328, 38.39193255801314], [67.94001858663015, 38.37867567302496], [67.95469788789303, 38.377324525916244], [67.9610655329159, 38.39339960451197], [67.9910217442942, 38.352710351144985], [68.00286071286743, 38.36409438864694], [68.02478161666345, 38.347154307720395], [68.044455158495, 38.35647378112007], [68.0182133345685, 38.378073716704414], [68.04432588970515, 38.37906359894427], [68.03761492689304, 38.40638454047027], [68.05274019743483, 38.414945991673456], [68.08404756538488, 38.40492197748633], [68.09957858080129, 38.4224952675562], [68.1133616292318, 38.42536690111478], [68.13975949769325, 38.464620405541474], [68.1424082537059, 38.47224991461285], [68.10918792860038, 38.49817069412829], [68.06848077041514, 38.54064805907076], [68.07574917233747, 38.63073975872683], [68.0857821155829, 38.64017073190986], [68.08599171356195, 38.64784486972273], [68.06726794628761, 38.68077084315332], [68.05885360354814, 38.70654889994243], [68.08563046635777, 38.72653010335308], [68.12004134178034, 38.72979867297728], [68.12770210930067, 38.741191635455316], [68.07296218271588, 38.80349865222533], [68.08206320890027, 38.81313480025962], [68.15697161597352, 38.825134258780125], [68.16967116388328, 38.84026846077405], [68.19697869725374, 38.85131807426659], [68.19509254467988, 38.86360291896516], [68.19063784996692, 38.88787825524075], [68.19811131700139, 38.89158819229696], [68.19908782643202, 38.92611057374855], [68.14107941786162, 38.961631779078424], [68.11535036777737, 39.0100219672972], [68.08864935142243, 39.02388081058418], [68.06164949744623, 39.026239747168184], [68.01887331880538, 39.01016466496922], [67.99981952627196, 39.01378098602631], [67.9757091991748, 39.03333859532843], [67.96586799839727, 39.03349021920623], [67.93971084516377, 39.02380058254954], [67.89916871879487, 39.02298008068356], [67.87648084698377, 39.00030112753469], [67.84455813778328, 39.0026688602234], [67.8153688636829, 39.016518859527956], [67.77048801064937, 39.01299169199021], [67.74859828827945, 39.00113047374102], [67.73225562135013, 39.00443467987135], [67.71536008928587, 38.9996590002433], [67.703601479563, 39.0036632635992], [67.67001999941286, 38.98053841235935], [67.62960270810595, 38.983423440039644], [67.60794925851063, 38.96236756711558], [67.58530596463622, 38.971660308449], [67.56933798653884, 38.98336098327841], [67.5568524762137, 38.97244509838883], [67.5391453878805, 38.96773633290222], [67.48945763508935, 38.92838026214604], [67.49766679758825, 38.914307343651274], [67.53437862790385, 38.90117973613897], [67.54265019007215, 38.88884142107218], [67.53933710269708, 38.85948271090025], [67.56304173986183, 38.850176577326515], [67.5778949761163, 38.838502665207706], [67.55757041590384, 38.82187461583944], [67.5548190737018, 38.8046134893507], [67.57039471542888, 38.79065648608681], [67.57540679902777, 38.7732302924071], [67.56018788859818, 38.74733186346523], [67.55518922949304, 38.71589074178545], [67.53788787396542, 38.70959443693609], [67.53708527385359, 38.68856980324997], [67.49251659162223, 38.687517442473], [67.46735381287719, 38.69871430000482], [67.42645050807283, 38.69453159933243], [67.40276372988875, 38.66807576611527], [67.38300099186785, 38.67160289819488], [67.37529566622891, 38.64172246403923], [67.34921889759008, 38.627355252445966], [67.34677974212595, 38.611623534437214], [67.3566745231797, 38.59708246285774], [67.3458611501739, 38.586081794710786], [67.32678067502154, 38.581306144092444], [67.30517637124701, 38.55854245476684]], [[67.6460032830553, 38.6576236615715], [67.65673633216262, 38.6699798172245], [67.67376560121586, 38.668588581307134], [67.68340173677834, 38.681872213125786], [67.70515328714994, 38.68486880036125], [67.70831921194865, 38.67844765513217], [67.7162697506948, 38.67822020883307], [67.72119262729791, 38.68712059817883], [67.75710177012179, 38.67432745442935], [67.76643466192832, 38.65237080836921], [67.78011968398495, 38.65287473172125], [67.78030251425312, 38.65738284283228], [67.78716057228334, 38.65809189641087], [67.79588253768695, 38.64879463073448], [67.8061518890497, 38.64940105537063], [67.8097146747206, 38.65291035165167], [67.81977888750943, 38.64899084712335], [67.82558464830709, 38.65153252399191], [67.81906101407017, 38.658956946173], [67.80534924439426, 38.65755675052203], [67.75090809654272, 38.68987190996419], [67.73061919824696, 38.694982018495416], [67.71741581015858, 38.70620554059036], [67.70688782790533, 38.69927166996009], [67.6947011484404, 38.70775734375213], [67.68320554628708, 38.70537616019873], [67.67345353561147, 38.68938584878261], [67.65515783091476, 38.6871874896845], [67.64686388154568, 38.67929042069293], [67.6183925378485, 38.679178958223915], [67.62578572543183, 38.66452186444468], [67.6460032830553, 38.6576236615715]]]}, "id": "0001000000000000043e", "properties": {"district": "Sariosiyo", "region": "Surkhandarya", "n_years": 19, "status": "ok", "y_ref": 5475.414915885485, "y_min": 4860.0, "y_max": 6730.0, "cv": 0.08940040377445417, "coverage": 0.907925603373895, "exit_level": 0.4, "mu": -235.2193887648855, "beta": 406.9239774170795, "trend_slope": -53.52894593999702, "trend_p": 0.025076255412779518, "detrended": true, "trigger_prob": 0.15000000000000013, "pure_rate": 0.02282147709185934, "gross_rate": 0.1366472098623857, "burn_rate": 0.011358985219513314, "n_triggers": 3, "RL5": 375.1421565342183, "RL10": 680.5090347145376, "RL20": 973.4242756806648, "RL50": 1352.573009559825, "RL100": 1636.6916313071429, "VaR90": 680.5090347145376, "CVaR90": 1098.2125137987541, "VaR95": 973.4242756806648, "CVaR95": 1385.5810491166594, "VaR99": 1636.6916313071429, "CVaR99": 2044.6386088247696, "r_heat35": -0.26482908709013214, "p_heat35": 0.2732074707127366, "r_heat30": 0.2291463864426771, "p_heat30": 0.345345400378369, "r_t_max_abs": -0.12498723287779459, "p_t_max_abs": 0.6101725501899271, "r_rh_min_mean": -0.08410493196435224, "p_rh_min_mean": 0.7321072365997642, "r_precip_sum": -0.39159136190743155, "p_precip_sum": 0.09731469374805733, "n": 19, "sd_pct": 8.9, "r_viloyat": 0.57, "HE_tuman": 18.9, "HE_viloyat": -10.2, "sof_tarif": 0.45, "chastota_pct": 16, "zone": "Barqaror"}}, {"type": "Feature", "geometry": {"type": "Polygon", "coordinates": [[[67.71003592846385, 38.00434301383091], [67.71204252616398, 37.98080346412174], [67.7264945384157, 37.97569332181424], [67.74990036341394, 37.97502891641534], [67.75505055056028, 37.957268313125354], [67.73991192979979, 37.94479175734573], [67.73930996777648, 37.92953719975552], [67.75223691528852, 37.92330333260675], [67.7832276190398, 37.92945688028948], [67.8063258075632, 37.92173824613953], [67.79553033641143, 37.90796853411311], [67.75871147564888, 37.90197989857182], [67.7535791059936, 37.88334981259036], [67.74033552272208, 37.88137442518066], [67.7468547916072, 37.861237099779764], [67.7257141222677, 37.844225666067736], [67.72704301291306, 37.84066283514209], [67.74574891642109, 37.83308235682867], [67.75193811517667, 37.804731363252706], [67.77732829551734, 37.781704611677036], [67.79479009540736, 37.780023479117894], [67.81192195319903, 37.77012879540912], [67.87801924115445, 37.81514782630545], [67.91256834168966, 37.8023769703755], [67.93479253572205, 37.77471277415431], [67.98307117836873, 37.77677282213298], [68.04165036346146, 37.74679429541562], [68.02073719509396, 37.76974083963856], [68.02074611011815, 37.80379048675347], [68.03343230579816, 37.82687527963788], [68.02512493652127, 37.837688576647835], [67.99754985028808, 37.842058489204916], [68.00589735408954, 37.866458747141024], [68.02564219062175, 37.88345235314449], [68.02335466547349, 37.93165079653523], [68.06848077041514, 37.9595959355886], [68.07672119868454, 37.98046905662626], [68.05132214929283, 38.00239441252222], [68.03089060513265, 38.004200341512444], [68.02979359900748, 38.01245416569415], [68.05094762384488, 38.027053220165385], [68.04529790743346, 38.031927038854114], [68.01612649353042, 38.03518218907833], [68.01960908085881, 38.04798428662472], [67.99517765413044, 38.059305968422436], [67.95115743327547, 38.05830268218583], [67.93658503813745, 38.08193139194288], [67.93151955057156, 38.10086920694379], [67.90291440900066, 38.118161636102265], [67.90344946910173, 38.131057356301696], [67.88741900512528, 38.133884434853194], [67.8822954949034, 38.15165391497475], [67.86537764231079, 38.14657499574365], [67.86734856372271, 38.15826227377968], [67.85003831873092, 38.16581605077553], [67.84925803382708, 38.14705659073462], [67.85732896607674, 38.1292068030573], [67.83950149507537, 38.123869229477876], [67.83608137773233, 38.11222654231411], [67.8247374242558, 38.12195633219214], [67.81515483014323, 38.1386690262913], [67.8043682245993, 38.1260676102817], [67.81238567665028, 38.107053961535], [67.79891918481928, 38.10040101239757], [67.79096418733671, 38.08537387227407], [67.78260781444335, 38.09618272048136], [67.75070744126847, 38.06892871033921], [67.76167238429615, 38.04982589883162], [67.78307162182618, 38.035115284644846], [67.78378502493229, 38.01632020949535], [67.76314383543632, 38.013386123747296], [67.73868572118766, 38.02465869853486], [67.71003592846385, 38.00434301383091]]]}, "id": "0001000000000000043f", "properties": {"district": "Sho'rchi", "region": "Surkhandarya", "n_years": 19, "status": "ok", "y_ref": 5964.937064162397, "y_min": 4746.68874172185, "y_max": 6840.000000000001, "cv": 0.08074283790070085, "coverage": 0.917654263778457, "exit_level": 0.4, "mu": -231.32291745048934, "beta": 397.6475736790724, "trend_slope": 65.8370098302458, "trend_p": 0.002673910195163686, "detrended": true, "trigger_prob": 0.15000000000000002, "pure_rate": 0.020099956008994137, "gross_rate": 0.12028545680874983, "burn_rate": 0.006654815193559519, "n_triggers": 1, "RL5": 365.1245789486521, "RL10": 663.5301901419637, "RL20": 949.7680166842354, "RL50": 1320.273522522271, "RL100": 1597.9152611388783, "VaR90": 663.5301901419637, "CVaR90": 1071.7115316039385, "VaR95": 949.7680166842354, "CVaR95": 1352.5290974456057, "VaR99": 1597.9152611388783, "CVaR99": 1996.5625141940297, "r_heat35": 0.019514324725019527, "p_heat35": 0.9367993293984274, "r_heat30": 0.13817713387842578, "p_heat30": 0.5726668575815538, "r_t_max_abs": 0.2683421983754024, "p_t_max_abs": 0.26665578348953517, "r_rh_min_mean": -0.08903671426189037, "p_rh_min_mean": 0.7169968249227036, "r_precip_sum": 0.1571892164467171, "p_precip_sum": 0.5204376966510461, "n": 19, "sd_pct": 8.1, "r_viloyat": 0.7, "HE_tuman": 17.2, "HE_viloyat": 27.4, "sof_tarif": 0.25, "chastota_pct": 5, "zone": "Barqaror"}}, {"type": "Feature", "geometry": {"type": "Polygon", "coordinates": [[[67.17703070706055, 37.367619115886136], [67.16802775499704, 37.35843778316071], [67.19645010298319, 37.33780112859017], [67.11050086678783, 37.30416605480227], [67.11000149970762, 37.28992376105935], [67.1221570268786, 37.281932978763265], [67.12864500006545, 37.271583448420905], [67.1415629933206, 37.26732050657271], [67.16262329818146, 37.2586163310998], [67.18321104179901, 37.26033759048966], [67.20865013899697, 37.24897129689427], [67.21225310066603, 37.24191259361538], [67.230522053957, 37.23395309628075], [67.24814443022494, 37.20970003705806], [67.25535038470102, 37.18884039127704], [67.26688603892612, 37.18227212820088], [67.31081266091778, 37.19143556553579], [67.32568378646597, 37.20297124648846], [67.38632302330475, 37.2184264870969], [67.40313384060568, 37.219255891814896], [67.45901535038388, 37.24027160430188], [67.48093623035318, 37.26929591119468], [67.49899120719041, 37.28141128946008], [67.51541407247686, 37.27820520439867], [67.52055982274578, 37.27294791369622], [67.53515894460898, 37.266923672201145], [67.53547998413208, 37.25924959079211], [67.55646895069385, 37.24157369662093], [67.57567437016564, 37.22303275372144], [67.59586067613613, 37.22906588982288], [67.61266706529916, 37.2392059028886], [67.62731517313038, 37.23688268333542], [67.64505346010776, 37.22287219204428], [67.68073520352407, 37.232606422639414], [67.70419005842663, 37.2239067456362], [67.71344717326295, 37.224151998045706], [67.73696442808671, 37.21454705744076], [67.75364596086993, 37.20310947362063], [67.75866690560598, 37.19347337712248], [67.7786570424808, 37.17963229819885], [67.80539827265653, 37.192759938620604], [67.82336844046719, 37.25161558654453], [67.83056548508222, 37.32085204253756], [67.77927238872086, 37.312031915190005], [67.74518706514479, 37.331785764740914], [67.69710456874516, 37.327268656400065], [67.63205077731202, 37.33492942341992], [67.58656343093952, 37.361996179309656], [67.5534814206386, 37.371097207723075], [67.45472569004984, 37.37251516878935], [67.37311516007071, 37.36520674963834], [67.32527796617444, 37.368742757544325], [67.29212007482604, 37.3766041575033], [67.21413041378433, 37.36908617263801], [67.17703070706055, 37.367619115886136]], [[67.31350597168976, 37.22022794578003], [67.3313913837625, 37.21695495828535], [67.34397941216365, 37.224031594470866], [67.34285131660903, 37.23714580387758], [67.34905831180683, 37.242639391971295], [67.34454127802351, 37.248137483678136], [67.33551163155914, 37.245176620858736], [67.33156533369977, 37.2481374790382], [67.33946239950313, 37.25701999116853], [67.33156533369977, 37.26505533587091], [67.31746120467557, 37.260828072431984], [67.29714107839634, 37.24517666071328], [67.30447176897302, 37.22656880616294], [67.31350597168976, 37.22022794578003]]]}, "id": "00010000000000000440", "properties": {"district": "Termiz tumani", "region": "Surkhandarya", "n_years": 19, "status": "ok", "y_ref": 6792.710703053686, "y_min": 4260.0, "y_max": 7509.999999999999, "cv": 0.09862257500022141, "coverage": 0.8978328209172957, "exit_level": 0.4, "mu": -331.1605174964817, "beta": 564.2128389879302, "trend_slope": 139.29801910223094, "trend_p": 2.443742998744513e-05, "detrended": true, "trigger_prob": 0.15000000000000002, "pure_rate": 0.025984928725728423, "gross_rate": 0.15577559859586065, "burn_rate": 0.01360590898315583, "n_triggers": 3, "RL5": 515.1248807446232, "RL10": 938.5256210121539, "RL20": 1344.6617763140598, "RL50": 1870.3633702542493, "RL100": 2264.3027375112642, "VaR90": 938.5256210121539, "CVaR90": 1517.6845766607316, "VaR95": 1344.6617763140598, "CVaR95": 1916.1300508661884, "VaR99": 2264.3027375112642, "CVaR99": 2829.9339981775584, "r_heat35": 0.19769685641808318, "p_heat35": 0.41719790024782943, "r_heat30": 0.07800248376380269, "p_heat30": 0.7509353502684036, "r_t_max_abs": 0.12187664352077748, "p_t_max_abs": 0.6191595581598551, "r_rh_min_mean": -0.2776224306123733, "p_rh_min_mean": 0.24982529874315704, "r_precip_sum": -0.1558621654498539, "p_precip_sum": 0.5240093752163091, "n": 19, "sd_pct": 9.9, "r_viloyat": 0.74, "HE_tuman": 28.1, "HE_viloyat": 16.0, "sof_tarif": 0.71, "chastota_pct": 16, "zone": "Barqaror"}}, {"type": "Feature", "geometry": {"type": "MultiPolygon", "coordinates": [[[[67.6183925378485, 38.679178958223915], [67.62578572543183, 38.66452186444468], [67.6460032830553, 38.6576236615715], [67.65673633216262, 38.6699798172245], [67.67376560121586, 38.668588581307134], [67.68340173677834, 38.681872213125786], [67.70515328714994, 38.68486880036125], [67.70831921194865, 38.67844765513217], [67.7162697506948, 38.67822020883307], [67.72119262729791, 38.68712059817883], [67.75710177012179, 38.67432745442935], [67.76643466192832, 38.65237080836921], [67.78011968398495, 38.65287473172125], [67.78030251425312, 38.65738284283228], [67.78716057228334, 38.65809189641087], [67.79588253768695, 38.64879463073448], [67.8061518890497, 38.64940105537063], [67.8097146747206, 38.65291035165167], [67.81977888750943, 38.64899084712335], [67.82558464830709, 38.65153252399191], [67.81906101407017, 38.658956946173], [67.80534924439426, 38.65755675052203], [67.75090809654272, 38.68987190996419], [67.73061919824696, 38.694982018495416], [67.71741581015858, 38.70620554059036], [67.70688782790533, 38.69927166996009], [67.6947011484404, 38.70775734375213], [67.68320554628708, 38.70537616019873], [67.67345353561147, 38.68938584878261], [67.65515783091476, 38.6871874896845], [67.64686388154568, 38.67929042069293], [67.6183925378485, 38.679178958223915]]], [[[67.93658503813745, 38.08193139194288], [67.95115743327547, 38.05830268218583], [67.99517765413044, 38.059305968422436], [68.01960908085881, 38.04798428662472], [68.01612649353042, 38.03518218907833], [68.04529790743346, 38.031927038854114], [68.05094762384488, 38.027053220165385], [68.02979359900748, 38.01245416569415], [68.03089060513265, 38.004200341512444], [68.05132214929283, 38.00239441252222], [68.07672119868454, 37.98046905662626], [68.06848077041514, 37.9595959355886], [68.02335466547349, 37.93165079653523], [68.02564219062175, 37.88345235314449], [68.00589735408954, 37.866458747141024], [67.99754985028808, 37.842058489204916], [68.02512493652127, 37.837688576647835], [68.03343230579816, 37.82687527963788], [68.02074611011815, 37.80379048675347], [68.02073719509396, 37.76974083963856], [68.04696120917107, 37.743784419616055], [68.12875001889768, 37.87728988202512], [68.21634906939597, 37.88921795504848], [68.2702684749623, 37.90939098368765], [68.27797827791274, 37.924618820920436], [68.27594936751359, 37.93808972301307], [68.28620982447713, 37.95710782519531], [68.28455099663206, 37.98403186206859], [68.32751891971117, 38.04386404068421], [68.36992942918123, 38.078471161644906], [68.37298836474014, 38.09954039470316], [68.4022311092925, 38.18155218618883], [68.40219098943261, 38.19547350568958], [68.36333885337379, 38.242958491619476], [68.36290190159623, 38.24950001282025], [68.31790062455615, 38.293850222407386], [68.2605744385592, 38.318433198615615], [68.23360134847783, 38.32863118783106], [68.2273184175129, 38.36521812733185], [68.19675126359421, 38.40605897146687], [68.15648563920512, 38.422107354368265], [68.11877946790979, 38.41121820799338], [68.1090184480043, 38.411378713746856], [68.1133616292318, 38.42536690111478], [68.09957858080129, 38.4224952675562], [68.08404756538488, 38.40492197748633], [68.05274019743483, 38.414945991673456], [68.03761492689304, 38.40638454047027], [68.04432588970515, 38.37906359894427], [68.0182133345685, 38.378073716704414], [68.044455158495, 38.35647378112007], [68.02478161666345, 38.347154307720395], [68.05172796863037, 38.2978857064646], [68.0114221003651, 38.25102053787438], [68.00548708304065, 38.21598539582415], [67.98376681448245, 38.155618058714154], [67.96510095695159, 38.13153891149222], [67.95809125251586, 38.10475310423316], [67.93658503813745, 38.08193139194288]]]]}, "id": "00010000000000000441", "properties": {"district": "Uzun", "region": "Surkhandarya", "n_years": 19, "status": "ok", "y_ref": 5245.707860449451, "y_min": 3860.0, "y_max": 6300.0, "cv": 0.12774598399463574, "coverage": 0.8666298497824205, "exit_level": 0.4, "mu": -325.73800992861635, "beta": 564.32635102546, "trend_slope": 7.680775603385893, "trend_p": 0.789726616671353, "detrended": false, "trigger_prob": 0.15000000000000002, "pure_rate": 0.035509416364284827, "gross_rate": 0.21479815601660374, "burn_rate": 0.022016287704196284, "n_triggers": 3, "RL5": 520.717649556558, "RL10": 944.2035723605329, "RL20": 1350.4214367965053, "RL50": 1876.2287948294932, "RL100": 2270.2474173908013, "VaR90": 944.2035723605329, "CVaR90": 1523.4790470043667, "VaR95": 1350.4214367965053, "CVaR95": 1922.0046830822519, "VaR99": 2270.2474173908013, "CVaR99": 2835.992475461997, "r_heat35": 0.4363762248927052, "p_heat35": 0.06177819153833497, "r_heat30": 0.165625632627426, "p_heat30": 0.4980017887938929, "r_t_max_abs": 0.013424086644126155, "p_t_max_abs": 0.956501866515108, "r_rh_min_mean": -0.0863218394248583, "p_rh_min_mean": 0.7253028351423253, "r_precip_sum": -0.09689367706863304, "p_precip_sum": 0.6931325441040417, "n": 19, "sd_pct": 12.7, "r_viloyat": 0.56, "HE_tuman": 45.2, "HE_viloyat": 7.5, "sof_tarif": 1.84, "chastota_pct": 21, "zone": "Barqaror"}}, {"type": "Feature", "geometry": {"type": "Polygon", "coordinates": [[[67.09898304100102, 37.430501374711866], [67.10564493616066, 37.45853122611725], [67.13374170013401, 37.473152661081684], [67.16150859027398, 37.52418256351105], [67.16048298018272, 37.53830014318991], [67.10233184587985, 37.54199673977826], [67.0497590001532, 37.53731014864279], [67.01428244047048, 37.51930882329071], [66.95124853974441, 37.50425043829218], [66.92646930424931, 37.503608264412904], [66.90280931274523, 37.490012488893335], [66.86769841428341, 37.48370737575299], [66.84197385324048, 37.446656694169455], [66.8229691502945, 37.44352638553852], [66.79185356704174, 37.42184175111496], [66.71288288640677, 37.404616294131635], [66.67520795268972, 37.410047437605236], [66.61823844438375, 37.39938130342851], [66.57123502088777, 37.37911016227728], [66.5665307479702, 37.365242403274976], [66.58372947320007, 37.36987093927688], [66.60404064283186, 37.36367277914447], [66.61022992961506, 37.34905584679188], [66.62288931968519, 37.332031003832235], [66.64683023541167, 37.32796878276397], [66.65536489032283, 37.323028057751664], [66.66715475942887, 37.3286911582521], [66.67164507759834, 37.34162698240015], [66.69262074244365, 37.35701979439245], [66.71059533363196, 37.35637324437114], [66.73286859012549, 37.36373074924474], [66.74276334395354, 37.35535214882913], [66.75119099804816, 37.35380928289508], [66.76900956296102, 37.36085463230018], [66.8008698585494, 37.36325360184567], [66.82392790243588, 37.35596751139106], [66.85121306406757, 37.353488216640635], [66.87267479104175, 37.366383972190775], [66.90412480799411, 37.37493651492981], [66.9353117215634, 37.393950110559246], [66.9464416197188, 37.398386873669615], [66.99359661129384, 37.38233410823806], [67.01107187638117, 37.3734070376709], [67.04808683442948, 37.37942680979066], [67.06914718162665, 37.36016792188889], [67.0876301813195, 37.34939033001581], [67.0872645519289, 37.34095812361301], [67.11242279175772, 37.32706801929868], [67.11132587309386, 37.30699316371413], [67.19645010298319, 37.33780112859017], [67.16802775499704, 37.35843778316071], [67.17703070706055, 37.367619115886136], [67.10111894013437, 37.40461180860902], [67.09898304100102, 37.430501374711866]]]}, "id": "00020000000000000122", "properties": {"district": "Muzrabod", "region": "Surkhandarya", "n_years": 19, "status": "ok", "y_ref": 6851.032344446314, "y_min": 3639.1492662744904, "y_max": 8220.0, "cv": 0.14339517040096528, "coverage": 0.861024150546892, "exit_level": 0.4, "mu": -456.5840127437877, "beta": 775.3122997983032, "trend_slope": 123.35432152617511, "trend_p": 0.003949949833658365, "detrended": true, "trigger_prob": 0.15000000000000002, "pure_rate": 0.0376511295681478, "gross_rate": 0.22852593703552207, "burn_rate": 0.0384151019689294, "n_triggers": 3, "RL5": 706.337907950169, "RL10": 1288.1534551857853, "RL20": 1846.2448966410861, "RL50": 2568.637021812348, "RL100": 3109.968263683748, "VaR90": 1288.1534551857853, "CVaR90": 2084.0039407191143, "VaR95": 1846.2448966410861, "CVaR95": 2631.527243280945, "VaR99": 3109.968263683748, "CVaR99": 3887.229685688325, "r_heat35": 0.007779234567794232, "p_heat35": 0.9747853658296362, "r_heat30": 0.06358549416541308, "p_heat30": 0.7959379516105287, "r_t_max_abs": 0.27355888047228816, "p_t_max_abs": 0.25710984925151803, "r_rh_min_mean": -0.2413619996995165, "p_rh_min_mean": 0.3195086809362336, "r_precip_sum": -0.06935662972419453, "p_precip_sum": 0.7778407810125536, "n": 19, "sd_pct": 14.4, "r_viloyat": 0.85, "HE_tuman": 62.1, "HE_viloyat": 17.2, "sof_tarif": 2.39, "chastota_pct": 16, "zone": "Barqaror"}}, {"type": "Feature", "geometry": {"type": "Polygon", "coordinates": [[[66.65701481414267, 37.97938545430269], [66.67607300719907, 37.962463183531845], [66.68371144853603, 37.94826982512492], [66.68339480627216, 37.93039328718203], [66.67915871973385, 37.91868820367401], [66.6165618190827, 37.8857978591513], [66.59675898723833, 37.85475809230385], [66.56422091168172, 37.822451833841995], [66.54823052593615, 37.79178217270145], [66.53850080020896, 37.72804826789888], [66.54477918533823, 37.70184210878777], [66.53393021706049, 37.59955030180462], [66.53827788402025, 37.579462094642004], [66.63965102916475, 37.47862844671155], [66.64621034206955, 37.465108421941466], [66.64114927987679, 37.442518593138644], [66.61454187982358, 37.43224036991775], [66.56098804557752, 37.418550947567525], [66.52726389092933, 37.39893981408131], [66.51777939040305, 37.380818051319274], [66.5212797200878, 37.369420567355576], [66.55373305336846, 37.35475461821854], [66.5665307479702, 37.365242403274976], [66.57123502088777, 37.37911016227728], [66.61823844438375, 37.39938130342851], [66.67520795268972, 37.410047437605236], [66.71288288640677, 37.404616294131635], [66.79185356704174, 37.42184175111496], [66.8229691502945, 37.44352638553852], [66.84197385324048, 37.446656694169455], [66.86769841428341, 37.48370737575299], [66.90280931274523, 37.490012488893335], [66.92646930424931, 37.503608264412904], [66.95124853974441, 37.50425043829218], [67.01428244047048, 37.51930882329071], [67.0497590001532, 37.53731014864279], [67.10233184587985, 37.54199673977826], [67.16048298018272, 37.53830014318991], [67.17824353248773, 37.54728075091647], [67.17322704580076, 37.573232676787164], [67.19121513477758, 37.58924536220153], [67.21541465880786, 37.61686054583936], [67.2556535245517, 37.68869665457448], [67.26535659402461, 37.71781457032356], [67.25756201660191, 37.747369486616364], [67.22821674267843, 37.74338305579128], [67.19979890124362, 37.75081195204941], [67.1494378110881, 37.72851644051995], [67.14775672783996, 37.768487817097125], [67.11475936212183, 37.788041004397265], [67.1692362047603, 37.800856460173826], [67.20334827838688, 37.816490011961996], [67.21549939630947, 37.83029096073163], [67.20054797973897, 37.86588350540523], [67.20591674133925, 37.896285634684375], [67.17066758153565, 37.89242853739189], [67.14887150997184, 37.89763674880897], [67.11941461185938, 37.891282536062015], [67.06837575847376, 37.89715515166351], [66.98870944713015, 37.9259520182533], [66.93386701782892, 37.95416478917395], [66.87969781322624, 37.95532859354065], [66.86025172435815, 37.94047532319612], [66.8414387561489, 37.949085843356066], [66.82601026193736, 37.97407020604829], [66.80404473481796, 37.97452502769383], [66.77980055176457, 37.99969221191548], [66.75513284963789, 38.00958696515263], [66.74381121813215, 38.025086835287276], [66.71566092504848, 38.013903401759244], [66.69352588888793, 38.02260754381444], [66.65701481414267, 37.97938545430269]]]}, "id": "00020000000000000123", "properties": {"district": "Sherobod", "region": "Surkhandarya", "n_years": 19, "status": "ok", "y_ref": 6796.996676148439, "y_min": 4205.01218238775, "y_max": 7330.0, "cv": 0.07299911655191288, "coverage": 0.9280831440584274, "exit_level": 0.4, "mu": -236.30499492324415, "beta": 399.0860054881446, "trend_slope": 151.2548713890512, "trend_p": 2.679555281853262e-07, "detrended": true, "trigger_prob": 0.15000000000000002, "pure_rate": 0.01735902255668895, "gross_rate": 0.1038564048497976, "burn_rate": 0.011879576514542, "n_triggers": 3, "RL5": 362.3000628645515, "RL10": 661.7851126149118, "RL20": 949.0583625368578, "RL50": 1320.9041177321396, "RL100": 1599.550184640398, "VaR90": 661.7851126149118, "CVaR90": 1071.4429902468332, "VaR95": 949.0583625368578, "CVaR95": 1353.276372469613, "VaR99": 1599.550184640398, "CVaR99": 1999.6394856982274, "r_heat35": 0.2873344724190233, "p_heat35": 0.23295070688327613, "r_heat30": 0.35575990301189936, "p_heat30": 0.13495222059395579, "r_t_max_abs": 0.21555586596398082, "p_t_max_abs": 0.3754648441740129, "r_rh_min_mean": -0.4382000744285212, "p_rh_min_mean": 0.06057455011901028, "r_precip_sum": -0.20971879758208758, "p_precip_sum": 0.3888389795969908, "n": 19, "sd_pct": 7.3, "r_viloyat": 0.8, "HE_tuman": 28.4, "HE_viloyat": 32.4, "sof_tarif": 0.43, "chastota_pct": 5, "zone": "Barqaror"}}, {"type": "Feature", "geometry": {"type": "Polygon", "coordinates": [[[67.29714107839634, 37.24517666071328], [67.30447176897302, 37.22656880616294], [67.31350597168976, 37.22022794578003], [67.3313913837625, 37.21695495828535], [67.34397941216365, 37.224031594470866], [67.34285131660903, 37.23714580387758], [67.34905831180683, 37.242639391971295], [67.34454127802351, 37.248137483678136], [67.33551163155914, 37.245176620858736], [67.33156533369977, 37.2481374790382], [67.33946239950313, 37.25701999116853], [67.33156533369977, 37.26505533587091], [67.31746120467557, 37.260828072431984], [67.29714107839634, 37.24517666071328]]]}, "id": "00020000000000000124", "properties": {"district": "Termiz shahri", "region": "Surkhandarya"}}]}